OBJECT_NAME,OBJECT_ID,EPOCH,MEAN_MOTION,ECCENTRICITY,INCLINATION,RA_OF_ASC_NODE,ARG_OF_PERICENTER,MEAN_ANOMALY,EPHEMERIS_TYPE,CLASSIFICATION_TYPE,NORAD_CAT_ID,ELEMENT_SET_NO,REV_AT_EPOCH,BSTAR,MEAN_MOTION_DOT,MEAN_MOTION_DDOT
PERSEUS-M1,2014-033AF,2026-06-05T09:28:46.970976,14.95594170,.00109506,97.9642,100.3340,345.5803,14.5104,0,U,40039,999,64887,.2431799E-3,.2641E-4,0
POLYITAN-1,2014-033AJ,2026-06-05T01:01:01.348608,15.32815214,.00077135,98.0948,181.1587,177.6399,182.4878,0,U,40042,999,65173,.69172249E-3,.21892E-3,0
AEROCUBE 6A,2014-033AM,2026-06-05T09:37:46.603776,14.97972844,.00393638,97.7220,323.4766,56.6811,303.8171,0,U,40045,999,64485,.55760885E-3,.6627E-4,0
AEROCUBE 6B,2014-033AN,2026-06-05T09:57:41.219424,14.99431467,.00391234,97.7222,323.2534,48.9903,311.4692,0,U,40046,999,64499,.60592945E-3,.7486E-4,0
CANX-4,2014-034C,2026-06-04T10:51:18.749376,14.81240766,.00139048,98.3135,30.2971,55.6030,304.6494,0,U,40055,999,64264,.16195794E-3,.1206E-4,0
CANX-5,2014-034D,2026-06-05T20:52:00.240672,14.81261017,.001385,98.3137,31.8094,51.4593,308.7858,0,U,40056,999,63366,.15074E-3,.1119E-4,0
UKUBE-1,2014-037F,2026-06-05T11:10:59.687904,15.13359228,.00018386,98.4242,158.5085,145.4672,214.6676,0,U,40074,999,64678,.54164424E-3,.9587E-4,0
SINOD-D 1,2015-058E,2026-06-05T10:41:33.925920,14.95824911,.01183897,64.7763,295.6808,57.7878,303.4649,0,U,40968,999,11490,.35342497E-3,.4379E-4,0
SNAP-3 ALICE,2015-058G,2026-06-05T08:50:44.081664,15.57316269,.0031536,64.7499,144.7009,18.6380,341.5912,0,U,40970,999,11504,.13172136E-2,.10006E-2,0
LMRST-SAT,2015-058H,2026-06-05T20:02:26.243808,14.90536145,.01315449,64.7770,310.5771,63.0666,298.3814,0,U,40971,999,11186,.33072155E-3,.3646E-4,0
SNAP-3 EDDIE,2015-058J,2026-06-05T08:49:36.153984,15.58502700,.00312868,64.7421,135.5143,22.6588,337.5930,0,U,40972,999,11718,.12196783E-2,.96816E-3,0
PROPCUBE 3,2015-058K,2026-06-05T11:55:28.136352,14.94187317,.0123542,64.7696,289.0585,64.5645,296.8193,0,U,40973,999,11305,.31529686E-3,.376E-4,0
BISONSAT,2015-058L,2026-06-05T11:44:46.691520,15.15944472,.00783848,64.7581,211.4551,51.8444,308.9709,0,U,40974,999,11384,.49302791E-3,.10073E-3,0
SNAP-3 JIMI,2015-058M,2026-06-05T09:44:48.773184,15.02190455,.01056343,64.7655,257.0442,60.2082,300.9489,0,U,40975,999,11245,.38498522E-3,.5555E-4,0
PROPCUBE 1 (FLORA),2015-058N,2026-06-05T20:19:12.840096,14.89166491,.0130246,64.7759,330.3823,65.3730,296.0883,0,U,40976,999,11457,.35422E-3,.3762E-4,0
HORYU-4,2016-012D,2026-06-05T08:02:38.708736,15.87524639,.00023851,30.9854,165.5202,199.5119,160.5450,0,U,41340,999,56892,.90645142E-3,.259558E-2,0
CELTEE 1,2016-067C,2026-06-05T02:11:22.684128,15.19557233,.0000633,98.0680,21.8328,81.4413,278.6891,0,U,41850,999,52404,.25171E-3,.5275E-4,0
OPTICUBE 04,2016-067D,2026-06-05T01:58:08.306112,15.09604129,.0016217,98.0707,7.7341,154.1500,206.0541,0,U,41851,999,52334,.15975E-3,.2503E-4,0
AEROCUBE 8D,2016-067E,2026-06-04T03:47:19.882464,15.24207534,.00038566,98.0693,24.3388,157.4456,202.6950,0,U,41852,999,52408,.35456574E-3,.8564E-4,0
AEROCUBE 8C,2016-067F,2026-06-04T02:51:50.149152,15.24450194,.000676,98.0566,21.5419,103.7079,256.4909,0,U,41853,999,52407,.36698624E-3,.8936E-4,0
CORVUS BC2,2017-042X,2026-06-05T16:51:08.733024,15.06223106,.00140744,97.4067,318.5006,145.2056,215.0094,0,U,42846,999,48533,.25442117E-3,.3679E-4,0
CORVUS BC1,2017-042Y,2026-06-05T10:22:38.202240,15.06389557,.00134064,97.4094,319.0474,124.7436,235.5056,0,U,42847,999,48532,.22542983E-3,.3267E-4,0
MAKERSAT 0,2017-073D,2026-06-04T04:20:33.622080,15.31596076,.0106721,97.4650,37.6017,320.0172,39.3245,0,U,43016,999,46447,.63992E-3,.23305E-3,0
